start=new Date('2022-10-24T00:00:00.000Z').valueOf();
sats=[{"TLE_LINE1":"1 53972U 22125J   22296.91667824 -.00121120  00000-0 -86827-3 0  9995","MEAN_MOTION_DOT":"-0.00121120","MEAN_ANOMALY":"262.5648","DECAY_DATE":null,"REF_FRAME":"TEME","ELEMENT_SET_NO":"999","PERIOD":"91.529","MEAN_MOTION_DDOT":"0.0000000000000","EPOCH":"2022-10-23T22:00:00.999936","INCLINATION":"53.2192","SITE":"AFWTR","SEMIMAJOR_AXIS":"6727.699","LAUNCH_DATE":"2022-10-05","PERIAPSIS":"347.824","BSTAR":"-0.00086827000000","CENTER_NAME":"EARTH","MEAN_ELEMENT_THEORY":"SGP4","GP_ID":"215997925","TIME_SYSTEM":"UTC","ECCENTRICITY":"0.00025860","APOAPSIS":"351.304","TLE_LINE2":"2 53972  53.2192   2.7619 0002586  14.0584 262.5648 15.73268778  1309","CLASSIFICATION_TYPE":"U","OBJECT_TYPE":"PAYLOAD","RA_OF_ASC_NODE":"2.7619","ARG_OF_PERICENTER":"14.0584","NORAD_CAT_ID":"53972","FILE":"3630604","RCS_SIZE":"LARGE","REV_AT_EPOCH":"130","COUNTRY_CODE":"US","EPHEMERIS_TYPE":"0","OBJECT_ID":"2022-125J","MEAN_MOTION":"15.73268778","OBJECT_NAME":"STARLINK-5157"},{"BSTAR":"-0.01362800000000","LAUNCH_DATE":"2022-10-05","PERIAPSIS":"374.083","SEMIMAJOR_AXIS":"6753.007","SITE":"AFWTR","MEAN_ELEMENT_THEORY":"SGP4","CENTER_NAME":"EARTH","ELEMENT_SET_NO":"999","PERIOD":"92.046","REF_FRAME":"TEME","MEAN_MOTION_DOT":"-0.01199906","TLE_LINE1":"1 53973U 22125K   22296.91667824 -.01199906  00000-0 -13628-1 0  9991","DECAY_DATE":null,"MEAN_ANOMALY":"153.0822","INCLINATION":"53.2177","EPOCH":"2022-10-23T22:00:00.999936","MEAN_MOTION_DDOT":"0.0000000000000","COUNTRY_CODE":"US","FILE":"3630604","REV_AT_EPOCH":"130","RCS_SIZE":"LARGE","OBJECT_NAME":"STARLINK-5156","OBJECT_ID":"2022-125K","MEAN_MOTION":"15.64433145","EPHEMERIS_TYPE":"0","TIME_SYSTEM":"UTC","ECCENTRICITY":"0.00011670","GP_ID":"215998325","RA_OF_ASC_NODE":"2.8646","ARG_OF_PERICENTER":"67.3649","NORAD_CAT_ID":"53973","OBJECT_TYPE":"PAYLOAD","TLE_LINE2":"2 53973  53.2177   2.8646 0001167  67.3649 153.0822 15.64433145  1301","CLASSIFICATION_TYPE":"U","APOAPSIS":"375.660"},{"EPOCH":"2022-10-24T04:00:01.999584","INCLINATION":"53.2191","MEAN_MOTION_DDOT":"0.0000000000000","ELEMENT_SET_NO":"999","PERIOD":"91.536","MEAN_MOTION_DOT":"0.00079194","TLE_LINE1":"1 53974U 22125L   22297.16668981  .00079194  00000-0  56440-3 0  9999","DECAY_DATE":null,"MEAN_ANOMALY":"1.5928","REF_FRAME":"TEME","CENTER_NAME":"EARTH","MEAN_ELEMENT_THEORY":"SGP4","BSTAR":"0.00056440000000","SITE":"AFWTR","SEMIMAJOR_AXIS":"6728.018","LAUNCH_DATE":"2022-10-05","PERIAPSIS":"348.811","RA_OF_ASC_NODE":"1.2165","ARG_OF_PERICENTER":"45.3051","NORAD_CAT_ID":"53974","APOAPSIS":"350.954","TLE_LINE2":"2 53974  53.2191   1.2165 0001593  45.3051   1.5928 15.73157069  3251","CLASSIFICATION_TYPE":"U","OBJECT_TYPE":"PAYLOAD","TIME_SYSTEM":"UTC","ECCENTRICITY":"0.00015930","GP_ID":"215998719","OBJECT_NAME":"STARLINK-5159","EPHEMERIS_TYPE":"0","OBJECT_ID":"2022-125L","MEAN_MOTION":"15.73157069","COUNTRY_CODE":"US","FILE":"3630626","RCS_SIZE":"MEDIUM","REV_AT_EPOCH":"325"},{"CENTER_NAME":"EARTH","MEAN_ELEMENT_THEORY":"SGP4","BSTAR":"-0.00093668000000","SITE":"AFWTR","SEMIMAJOR_AXIS":"6727.580","LAUNCH_DATE":"2022-10-05","PERIAPSIS":"347.489","EPOCH":"2022-10-23T22:00:00.999936","INCLINATION":"53.2185","MEAN_MOTION_DDOT":"0.0000000000000","ELEMENT_SET_NO":"999","PERIOD":"91.527","MEAN_MOTION_DOT":"-0.00130709","TLE_LINE1":"1 53975U 22125M   22296.91667824 -.00130709  00000-0 -93668-3 0  9992","DECAY_DATE":null,"MEAN_ANOMALY":"264.6524","REF_FRAME":"TEME","OBJECT_NAME":"STARLINK-5137","EPHEMERIS_TYPE":"0","OBJECT_ID":"2022-125M","MEAN_MOTION":"15.73310382","COUNTRY_CODE":"US","FILE":"3630604","REV_AT_EPOCH":"130","RCS_SIZE":"LARGE","ARG_OF_PERICENTER":"11.2455","RA_OF_ASC_NODE":"2.7629","NORAD_CAT_ID":"53975","APOAPSIS":"351.402","CLASSIFICATION_TYPE":"U","TLE_LINE2":"2 53975  53.2185   2.7629 0002908  11.2455 264.6524 15.73310382  1304","OBJECT_TYPE":"PAYLOAD","ECCENTRICITY":"0.00029080","TIME_SYSTEM":"UTC","GP_ID":"215998253"},{"BSTAR":"-0.00083295000000","SEMIMAJOR_AXIS":"6727.771","SITE":"AFWTR","LAUNCH_DATE":"2022-10-05","PERIAPSIS":"348.431","CENTER_NAME":"EARTH","MEAN_ELEMENT_THEORY":"SGP4","ELEMENT_SET_NO":"999","PERIOD":"91.531","MEAN_MOTION_DOT":"-0.00116144","TLE_LINE1":"1 53976U 22125N   22296.91667824 -.00116144  00000-0 -83295-3 0  9995","MEAN_ANOMALY":"262.3579","DECAY_DATE":null,"REF_FRAME":"TEME","EPOCH":"2022-10-23T22:00:00.999936","INCLINATION":"53.2204","MEAN_MOTION_DDOT":"0.0000000000000","COUNTRY_CODE":"US","FILE":"3630436","RCS_SIZE":"MEDIUM","REV_AT_EPOCH":"321","OBJECT_NAME":"STARLINK-5134","EPHEMERIS_TYPE":"0","OBJECT_ID":"2022-125N","MEAN_MOTION":"15.73243720","ECCENTRICITY":"0.00017910","TIME_SYSTEM":"UTC","GP_ID":"215968403","RA_OF_ASC_NODE":"2.7120","ARG_OF_PERICENTER":"40.3894","NORAD_CAT_ID":"53976","APOAPSIS":"350.840","OBJECT_TYPE":"PAYLOAD","TLE_LINE2":"2 53976  53.2204   2.7120 0001791  40.3894 262.3579 15.73243720  3210","CLASSIFICATION_TYPE":"U"},{"CENTER_NAME":"EARTH","MEAN_ELEMENT_THEORY":"SGP4","SEMIMAJOR_AXIS":"6727.691","SITE":"AFWTR","LAUNCH_DATE":"2022-10-05","PERIAPSIS":"347.413","BSTAR":"-0.00108150000000","MEAN_MOTION_DDOT":"0.0000000000000","EPOCH":"2022-10-23T22:00:00.999936","INCLINATION":"53.2186","MEAN_MOTION_DOT":"-0.00150238","TLE_LINE1":"1 53977U 22125P   22296.91667824 -.00150238  00000-0 -10815-2 0  9995","DECAY_DATE":null,"MEAN_ANOMALY":"269.7418","REF_FRAME":"TEME","ELEMENT_SET_NO":"999","PERIOD":"91.529","EPHEMERIS_TYPE":"0","OBJECT_ID":"2022-125P","MEAN_MOTION":"15.73271582","OBJECT_NAME":"STARLINK-5094","FILE":"3630604","REV_AT_EPOCH":"130","RCS_SIZE":"LARGE","COUNTRY_CODE":"US","APOAPSIS":"351.700","TLE_LINE2":"2 53977  53.2186   2.7592 0003186   8.0677 269.7418 15.73271582  1301","OBJECT_TYPE":"PAYLOAD","CLASSIFICATION_TYPE":"U","RA_OF_ASC_NODE":"2.7592","ARG_OF_PERICENTER":"8.0677","NORAD_CAT_ID":"53977","GP_ID":"215998090","TIME_SYSTEM":"UTC","ECCENTRICITY":"0.00031860"},{"OBJECT_ID":"2022-125Q","MEAN_MOTION":"15.72974730","EPHEMERIS_TYPE":"0","OBJECT_NAME":"STARLINK-5148","FILE":"3630604","RCS_SIZE":"LARGE","REV_AT_EPOCH":"130","COUNTRY_CODE":"US","CLASSIFICATION_TYPE":"U","TLE_LINE2":"2 53978  53.2178   2.7471 0002443  26.8951 252.6301 15.72974730  1303","OBJECT_TYPE":"PAYLOAD","APOAPSIS":"352.046","RA_OF_ASC_NODE":"2.7471","ARG_OF_PERICENTER":"26.8951","NORAD_CAT_ID":"53978","GP_ID":"215997763","ECCENTRICITY":"0.00024430","TIME_SYSTEM":"UTC","MEAN_ELEMENT_THEORY":"SGP4","CENTER_NAME":"EARTH","LAUNCH_DATE":"2022-10-05","PERIAPSIS":"348.759","SITE":"AFWTR","SEMIMAJOR_AXIS":"6728.538","BSTAR":"0.00240590000000","MEAN_MOTION_DDOT":"0.0000000000000","INCLINATION":"53.2178","EPOCH":"2022-10-23T22:00:00.999936","REF_FRAME":"TEME","MEAN_MOTION_DOT":"0.00348040","TLE_LINE1":"1 53978U 22125Q   22296.91667824  .00348040  00000-0  24059-2 0  9999","MEAN_ANOMALY":"252.6301","DECAY_DATE":null,"ELEMENT_SET_NO":"999","PERIOD":"91.546"},{"OBJECT_NAME":"STARLINK-5123","MEAN_MOTION":"15.73283579","OBJECT_ID":"2022-125R","EPHEMERIS_TYPE":"0","COUNTRY_CODE":"US","REV_AT_EPOCH":"130","RCS_SIZE":"LARGE","FILE":"3630604","NORAD_CAT_ID":"53979","ARG_OF_PERICENTER":"12.8463","RA_OF_ASC_NODE":"2.7580","TLE_LINE2":"2 53979  53.2191   2.7580 0002725  12.8463 265.5709 15.73283579  1306","OBJECT_TYPE":"PAYLOAD","CLASSIFICATION_TYPE":"U","APOAPSIS":"351.355","TIME_SYSTEM":"UTC","ECCENTRICITY":"0.00027250","GP_ID":"215998489","MEAN_ELEMENT_THEORY":"SGP4","CENTER_NAME":"EARTH","BSTAR":"-0.00095851000000","PERIAPSIS":"347.689","LAUNCH_DATE":"2022-10-05","SEMIMAJOR_AXIS":"6727.657","SITE":"AFWTR","INCLINATION":"53.2191","EPOCH":"2022-10-23T22:00:00.999936","MEAN_MOTION_DDOT":"0.0000000000000","PERIOD":"91.528","ELEMENT_SET_NO":"999","REF_FRAME":"TEME","MEAN_ANOMALY":"265.5709","DECAY_DATE":null,"TLE_LINE1":"1 53979U 22125R   22296.91667824 -.00133538  00000-0 -95851-3 0  9995","MEAN_MOTION_DOT":"-0.00133538"},{"REV_AT_EPOCH":"130","RCS_SIZE":"LARGE","FILE":"3630604","COUNTRY_CODE":"US","EPHEMERIS_TYPE":"0","MEAN_MOTION":"15.73268134","OBJECT_ID":"2022-125S","OBJECT_NAME":"STARLINK-5133","GP_ID":"215997926","TIME_SYSTEM":"UTC","ECCENTRICITY":"0.00028900","APOAPSIS":"351.510","CLASSIFICATION_TYPE":"U","TLE_LINE2":"2 53980  53.2194   2.7554 0002890  19.2464 260.9041 15.73268134  1305","OBJECT_TYPE":"PAYLOAD","NORAD_CAT_ID":"53980","RA_OF_ASC_NODE":"2.7554","ARG_OF_PERICENTER":"19.2464","SITE":"AFWTR","SEMIMAJOR_AXIS":"6727.701","PERIAPSIS":"347.622","LAUNCH_DATE":"2022-10-05","BSTAR":"-0.00097643000000","CENTER_NAME":"EARTH","MEAN_ELEMENT_THEORY":"SGP4","DECAY_DATE":null,"MEAN_ANOMALY":"260.9041","TLE_LINE1":"1 53980U 22125S   22296.91667824 -.00135900  00000-0 -97643-3 0  9993","MEAN_MOTION_DOT":"-0.00135900","REF_FRAME":"TEME","PERIOD":"91.529","ELEMENT_SET_NO":"999","MEAN_MOTION_DDOT":"0.0000000000000","EPOCH":"2022-10-23T22:00:00.999936","INCLINATION":"53.2194"},{"REF_FRAME":"TEME","TLE_LINE1":"1 53981U 22125T   22296.91667824 -.00216090  00000-0 -15655-2 0  9996","MEAN_MOTION_DOT":"-0.00216090","MEAN_ANOMALY":"288.5802","DECAY_DATE":null,"ELEMENT_SET_NO":"999","PERIOD":"91.525","MEAN_MOTION_DDOT":"0.0000000000000","INCLINATION":"53.2218","EPOCH":"2022-10-23T22:00:00.999936","LAUNCH_DATE":"2022-10-05","PERIAPSIS":"347.862","SEMIMAJOR_AXIS":"6727.502","SITE":"AFWTR","BSTAR":"-0.00156550000000","MEAN_ELEMENT_THEORY":"SGP4","CENTER_NAME":"EARTH","GP_ID":"215998326","TIME_SYSTEM":"UTC","ECCENTRICITY":"0.00022370","OBJECT_TYPE":"PAYLOAD","TLE_LINE2":"2 53981  53.2218   2.6957 0002237  22.2502 288.5802 15.73337927  1309","CLASSIFICATION_TYPE":"U","APOAPSIS":"350.872","RA_OF_ASC_NODE":"2.6957","ARG_OF_PERICENTER":"22.2502","NORAD_CAT_ID":"53981","FILE":"3630604","REV_AT_EPOCH":"130","RCS_SIZE":"LARGE","COUNTRY_CODE":"US","OBJECT_ID":"2022-125T","MEAN_MOTION":"15.73337927","EPHEMERIS_TYPE":"0","OBJECT_NAME":"STARLINK-5149"}];
